[
  {
    "name": "KUIPER-00230",
    "noradId": "68579",
    "line1": "1 68579U 26072G   26200.21634398  .00010642  00000+0  28422-3 0  9991",
    "line2": "2 68579  51.8770  21.6229 0002712 127.1582 232.9654 15.38648757 16311"
  },
  {
    "name": "KUIPER-00231",
    "noradId": "68580",
    "line1": "1 68580U 26072H   26200.58335648 -.00080831  00000+0 -94171-2 0  9991",
    "line2": "2 68580  51.9000  24.7819 0005382  81.4396 109.7454 14.85217525  4671"
  },
  {
    "name": "KUIPER-00234",
    "noradId": "68581",
    "line1": "1 68581U 26072J   26200.58335648  .00016014  00000+0  21267-2 0  9998",
    "line2": "2 68581  51.8999  47.3815 0000322 161.2767 233.2448 14.79890872  4348"
  },
  {
    "name": "KUIPER-00236",
    "noradId": "68582",
    "line1": "1 68582U 26072K   26200.23914955  .00004894  00000+0  13844-3 0  9991",
    "line2": "2 68582  51.8775  21.7753 0003187 131.4165 228.7096 15.38166372 16316"
  },
  {
    "name": "KUIPER-00244",
    "noradId": "68583",
    "line1": "1 68583U 26072L   26200.55393639  .00001363  00000+0  20772-3 0  9993",
    "line2": "2 68583  51.9011  37.5349 0001399 130.8782 229.2302 14.79939275 16127"
  },
  {
    "name": "KUIPER-00253",
    "noradId": "68584",
    "line1": "1 68584U 26072M   26200.55125029  .00001341  00000+0  20490-3 0  9993",
    "line2": "2 68584  51.9048  40.0526 0000648 110.2678 249.8354 14.79927685 16088"
  },
  {
    "name": "KUIPER-00254",
    "noradId": "68585",
    "line1": "1 68585U 26072N   26200.51478650  .00001419  00000+0  21516-3 0  9997",
    "line2": "2 68585  51.9044  42.7124 0001830 123.5302 236.5835 14.79931555 16047"
  },
  {
    "name": "KUIPER-00263",
    "noradId": "68586",
    "line1": "1 68586U 26072P   26200.58335648 -.00017786  00000+0 -23142-2 0  9996",
    "line2": "2 68586  51.9029  27.4841 0001302 100.4449 178.7587 14.79859998  5721"
  },
  {
    "name": "KUIPER-00269",
    "noradId": "68587",
    "line1": "1 68587U 26072Q   26200.52828697  .00001387  00000+0  21074-3 0  9993",
    "line2": "2 68587  51.9011  30.1454 0000406  90.5130 269.5879 14.79955207 16224"
  },
  {
    "name": "KUIPER-00272",
    "noradId": "68588",
    "line1": "1 68588U 26072R   26200.00022237  .00001541  00000+0  23111-3 0  9999",
    "line2": "2 68588  51.8997  52.4582 0000828 120.6347 239.4697 14.79933444 15861"
  },
  {
    "name": "KUIPER-00285",
    "noradId": "68589",
    "line1": "1 68589U 26072S   26200.22443293  .00001455  00000+0  21972-3 0  9990",
    "line2": "2 68589  51.9051  31.5459 0001876 152.3288 207.7775 14.79957492 16174"
  },
  {
    "name": "KUIPER-00286",
    "noradId": "68590",
    "line1": "1 68590U 26072T   26200.58335648 -.00011812  00000+0 -16582-2 0  9995",
    "line2": "2 68590  51.9022  27.0768 0002498 155.3429 113.8725 14.76358677  5456"
  },
  {
    "name": "KUIPER-00289",
    "noradId": "68591",
    "line1": "1 68591U 26072U   26199.81381158  .00001372  00000+0  20891-3 0  9993",
    "line2": "2 68591  51.9001  38.3003 0000733 128.8693 231.2335 14.79930659 16047"
  },
  {
    "name": "KUIPER-00290",
    "noradId": "68592",
    "line1": "1 68592U 26072V   26200.25172684  .00000918  00000+0  16151-3 0  9996",
    "line2": "2 68592  51.9036  34.9509 0001142 129.8880 230.2181 14.76399148 16130"
  },
  {
    "name": "KUIPER-00293",
    "noradId": "68593",
    "line1": "1 68593U 26072W   26200.27572449  .00001579  00000+0  23616-3 0  9990",
    "line2": "2 68593  51.8988  46.2414 0002772 141.2887 218.8274 14.79936267 15970"
  },
  {
    "name": "KUIPER-00294",
    "noradId": "68594",
    "line1": "1 68594U 26072X   26200.49178001  .00001393  00000+0  21171-3 0  9999",
    "line2": "2 68594  51.9005  32.8001 0001737  58.1439 301.9692 14.79927118 16181"
  },
  {
    "name": "KUIPER-00296",
    "noradId": "68595",
    "line1": "1 68595U 26072Y   26200.58335648 -.00253692  00000+0 -79462-2 0  9990",
    "line2": "2 68595  51.8732  20.2015 0009331 138.6695 256.1229 15.33534199  5415"
  },
  {
    "name": "KUIPER-00297",
    "noradId": "68596",
    "line1": "1 68596U 26072Z   26200.56819230  .00000837  00000+0  15011-3 0  9993",
    "line2": "2 68596  51.9011  44.8197 0001138 146.2821 213.8212 14.76359408 16028"
  },
  {
    "name": "KUIPER-00300",
    "noradId": "68597",
    "line1": "1 68597U 26072AA  26199.88283561  .00000979  00000+0  16989-3 0  9990",
    "line2": "2 68597  51.9039  44.8910 0001959 145.5637 214.5451 14.76475859 15964"
  },
  {
    "name": "KUIPER-00301",
    "noradId": "68598",
    "line1": "1 68598U 26072AB  26199.72235268  .00016151  00000+0  42304-3 0  9994",
    "line2": "2 68598  51.8660  24.2015 0009314 136.9398 223.2320 15.38812813 16230"
  },
  {
    "name": "KUIPER-00304",
    "noradId": "68599",
    "line1": "1 68599U 26072AC  26200.58335648 -.00004581  00000+0 -12326-3 0  9992",
    "line2": "2 68599  51.8696  20.2564 0011105 140.6892 204.2827 15.34555559  2779"
  },
  {
    "name": "KUIPER-00317",
    "noradId": "68600",
    "line1": "1 68600U 26072AD  26200.52556886  .00001357  00000+0  20702-3 0  9991",
    "line2": "2 68600  51.9002  32.6629 0000710  97.4016 262.7027 14.79924762 16185"
  },
  {
    "name": "KUIPER-00320",
    "noradId": "68601",
    "line1": "1 68601U 26072AE  26200.52016517  .00001320  00000+0  20206-3 0  9993",
    "line2": "2 68601  51.9041  37.6776 0000803 121.8386 238.2655 14.79937204 16115"
  },
  {
    "name": "KUIPER-00299",
    "noradId": "68864",
    "line1": "1 68864U 26095A   26199.94511394  .00000793  00000+0  14348-3 0  9998",
    "line2": "2 68864  51.9005 108.8813 0001360 287.9013  72.1800 14.76474055 12333"
  },
  {
    "name": "KUIPER-00353",
    "noradId": "68865",
    "line1": "1 68865U 26095B   26200.58335648  .00043865  00000+0  57464-2 0  9990",
    "line2": "2 68865  51.8992  92.4029 0001481 115.2323 177.5485 14.79925720  5510"
  },
  {
    "name": "KUIPER-00357",
    "noradId": "68866",
    "line1": "1 68866U 26095C   26200.41898842  .00001575  00000+0  23547-3 0  9991",
    "line2": "2 68866  51.9028 100.6323 0001263  97.4576 262.6530 14.79946033 12492"
  },
  {
    "name": "KUIPER-00364",
    "noradId": "68867",
    "line1": "1 68867U 26095D   26200.45010908  .00001637  00000+0  24378-3 0  9997",
    "line2": "2 68867  51.9046 103.0037 0001297 161.3193 198.7817 14.79927216 12461"
  },
  {
    "name": "KUIPER-00375",
    "noradId": "68868",
    "line1": "1 68868U 26095E   26200.43858449  .00001033  00000+0  17794-3 0  9990",
    "line2": "2 68868  51.9021  94.9950 0003335 108.2344 251.8980 14.76400053 12576"
  },
  {
    "name": "KUIPER-00433",
    "noradId": "68869",
    "line1": "1 68869U 26095F   26200.13832653  .00001748  00000+0  25798-3 0  9993",
    "line2": "2 68869  51.9013 111.8713 0001230  90.5967 269.5137 14.79973664 12318"
  },
  {
    "name": "KUIPER-00437",
    "noradId": "68870",
    "line1": "1 68870U 26095G   26199.99034147  .00012686  00000+0  33692-3 0  9993",
    "line2": "2 68870  51.8783  88.4747 0007763  65.4440 294.7356 15.38615124 12620"
  },
  {
    "name": "KUIPER-00448",
    "noradId": "68871",
    "line1": "1 68871U 26095H   26200.16048075  .00000792  00000+0  14348-3 0  9993",
    "line2": "2 68871  51.9045 100.1406 0001351 174.9916 185.1059 14.76432563 12479"
  },
  {
    "name": "KUIPER-00459",
    "noradId": "68872",
    "line1": "1 68872U 26095J   26200.58335648  .00019839  00000+0  14774-2 0  9999",
    "line2": "2 68872  51.8885  88.4258 0010467  61.6835 295.1683 15.02871710  4022"
  },
  {
    "name": "KUIPER-00468",
    "noradId": "68873",
    "line1": "1 68873U 26095K   26200.58335648  .00040316  00000+0  22417-2 0  9997",
    "line2": "2 68873  51.8881  86.9674 0004606  29.3421  96.0150 15.13283647  3297"
  },
  {
    "name": "KUIPER-00476",
    "noradId": "68874",
    "line1": "1 68874U 26095L   26200.10835493  .00010850  00000+0  34417-3 0  9993",
    "line2": "2 68874  51.8721  89.1917 0010037  61.2342 298.9649 15.33171270 12621"
  },
  {
    "name": "KUIPER-00478",
    "noradId": "68875",
    "line1": "1 68875U 26095M   26200.58335648 -.00021261  00000+0 -23919-2 0  9997",
    "line2": "2 68875  51.8967  89.8839 0006730  53.6644  52.9456 14.85949994  5470"
  },
  {
    "name": "KUIPER-00480",
    "noradId": "68876",
    "line1": "1 68876U 26095N   26200.58335648  .00016278  00000+0  12683-2 0  9994",
    "line2": "2 68876  51.8868  87.7815 0005902  49.1392  10.2244 15.01311013  3409"
  },
  {
    "name": "KUIPER-00482",
    "noradId": "68877",
    "line1": "1 68877U 26095P   26200.10322550  .00000977  00000+0  16984-3 0  9999",
    "line2": "2 68877  51.9022  99.3734 0000734 252.1242 107.9639 14.76419060 12482"
  },
  {
    "name": "KUIPER-00483",
    "noradId": "68878",
    "line1": "1 68878U 26095Q   26200.02416820  .00000792  00000+0  14320-3 0  9992",
    "line2": "2 68878  51.8983 112.2205 0001216 264.6864  95.3958 14.76520442 12290"
  },
  {
    "name": "KUIPER-00488",
    "noradId": "68879",
    "line1": "1 68879U 26095R   26200.58335648 -.00025386  00000+0 -32615-2 0  9996",
    "line2": "2 68879  51.8988  92.4179 0003727  90.7968  20.9594 14.80587205  5890"
  },
  {
    "name": "KUIPER-00489",
    "noradId": "68880",
    "line1": "1 68880U 26095S   26200.58335648 -.01937337  00000+0 -91502-1 0  9996",
    "line2": "2 68880  51.8784  87.2905 0014144  64.0359 219.3237 15.22161653  4707"
  },
  {
    "name": "KUIPER-00499",
    "noradId": "68881",
    "line1": "1 68881U 26095T   26200.58335648  .00007413  00000+0  74079-3 0  9999",
    "line2": "2 68881  51.8956  90.3579 0008297  66.8476  26.0200 14.92326797  3567"
  },
  {
    "name": "KUIPER-00500",
    "noradId": "68882",
    "line1": "1 68882U 26095U   26200.17455578  .00001688  00000+0  25036-3 0  9997",
    "line2": "2 68882  51.9016 109.2086 0001414  51.3606 308.7483 14.79935025 12352"
  },
  {
    "name": "KUIPER-00502",
    "noradId": "68883",
    "line1": "1 68883U 26095V   26200.58335648 -.01825845  00000+0 -97611-1 0  9996",
    "line2": "2 68883  51.8879  86.2569 0005409  62.5317   9.5682 15.17876304  2791"
  }
]